[{"OBJECT_NAME":"SEEDS II (CO-66)","OBJECT_ID":"2008-021J","EPOCH":"2026-03-09T22:06:22.421376","MEAN_MOTION":15.29097236,"ECCENTRICITY":0.00014475,"INCLINATION":97.7519,"RA_OF_ASC_NODE":62.3611,"ARG_OF_PERICENTER":359.2618,"MEAN_ANOMALY":0.8619,"EPHEMERIS_TYPE":0,"CLASSIFICATION_TYPE":"U","NORAD_CAT_ID":32791,"ELEMENT_SET_NO":999,"REV_AT_EPOCH":97210,"BSTAR":0.00084213052,"MEAN_MOTION_DOT":0.00023758,"MEAN_MOTION_DDOT":0},{"OBJECT_NAME":"STARLINK-2750","OBJECT_ID":"2021-044BF","EPOCH":"2026-03-10T00:00:02.999808","MEAN_MOTION":15.29347345,"ECCENTRICITY":0.00015288,"INCLINATION":53.1561,"RA_OF_ASC_NODE":73.8355,"ARG_OF_PERICENTER":90.9672,"MEAN_ANOMALY":300.9829,"EPHEMERIS_TYPE":0,"CLASSIFICATION_TYPE":"U","NORAD_CAT_ID":48691,"ELEMENT_SET_NO":999,"REV_AT_EPOCH":578,"BSTAR":0.0018051461,"MEAN_MOTION_DOT":0.00052085,"MEAN_MOTION_DDOT":0}]
